IRIDIUM 126             
1 42809U 17039G   25266.07475598  .00000107  00000+0  31155-4 0  9995
2 42809  86.3920 105.3276 0002172  93.5055 266.6389 14.34218056431660
IRIDIUM 124             
1 42810U 17039H   25266.12866300  .00000783  00000+0  22688-3 0  9998
2 42810  86.4496  41.9878 0002167  89.3548 270.7901 14.43287344436597
IRIDIUM 128             
1 42811U 17039J   25266.13525985  .00000501  00000+0  17190-3 0  9991
2 42811  86.3985 136.8183 0002319  75.7126 284.4327 14.34221127431702
IRIDIUM 121             
1 42812U 17039K   25266.09378455  .00000118  00000+0  34990-4 0  9997
2 42812  86.3921 105.3456 0002116  84.0398 276.1038 14.34217933431545
IRIDIUM 133             
1 42955U 17061A   25266.09720626  .00000121  00000+0  36178-4 0  9995
2 42955  86.3986 136.9454 0002148  84.2390 275.9051 14.34218474416491
IRIDIUM 100             
1 42956U 17061B   25266.09086449  .00000024  00000+0  15898-5 0  9993
2 42956  86.3985 136.8725 0002151  85.7158 274.4284 14.34217788416492
IRIDIUM 122             
1 42957U 17061C   25266.12891959  .00000174  00000+0  55149-4 0  9996
2 42957  86.3985 136.8565 0002181  85.6624 274.4821 14.34218005416507
IRIDIUM 129             
1 42958U 17061D   25266.01474358  .00000392  00000+0  13292-3 0  9999
2 42958  86.3985 136.9683 0001795  94.7830 265.3571 14.34221974416500
